GPS BIIA-23 (PRN 18)    
1 22877U 93068A   19054.56487119 -.00000044  00000-0  00000+0 0  9990
2 22877  54.6043  73.1976 0148105  78.6310  31.8796  2.00556837185595
GPS BIIR-2  (PRN 13)    
1 24876U 97035A   19054.80835488  .00000039  00000-0  00000-0 0  9996
2 24876  55.4680 202.9036 0034839  77.3471 283.0020  2.00564480158395
GPS BIIR-3  (PRN 11)    
1 25933U 99055A   19053.96507556 -.00000064  00000-0  00000+0 0  9991
2 25933  52.0566  50.7816 0163072 107.0534 291.5195  2.00561388141993
GPS BIIR-4  (PRN 20)    
1 26360U 00025A   19054.35133212 -.00000021  00000-0  00000+0 0  9996
2 26360  53.2877 129.1861 0042331 133.0810 230.6865  2.00562922137692
GPS BIIR-5  (PRN 28)    
1 26407U 00040A   19054.73853743 -.00000071  00000-0  00000-0 0  9991
2 26407  56.3317 321.0427 0195256 275.5503 342.6579  2.00560755136387
GPS BIIR-6  (PRN 14)    
1 26605U 00071A   19054.56157556  .00000035  00000-0  00000+0 0  9993
2 26605  55.0420 200.4060 0104002 248.8000 152.7085  2.00563257133979
GPS BIIR-8  (PRN 16)    
1 27663U 03005A   19054.55471318 -.00000069  00000-0  00000+0 0  9990
2 27663  56.3932 320.8197 0104936  30.1111 212.5713  2.00551471117740
GPS BIIR-9  (PRN 21)    
1 27704U 03010A   19054.00903994 -.00000042  00000-0  00000+0 0  9993
2 27704  54.2777  72.7262 0249588 275.5311 262.6283  2.00549918116522
GPS BIIR-10 (PRN 22)    
1 28129U 03058A   19054.50228959 -.00000021  00000-0  00000-0 0  9991
2 28129  53.1000 131.9866 0074295 278.7574  80.4536  2.00574988111220
GPS BIIR-11 (PRN 19)    
1 28190U 04009A   19055.00043219 -.00000077  00000-0  00000+0 0  9996
2 28190  56.2486  21.5885 0091819  76.8487 282.0704  2.00569835109427
GPS BIIR-12 (PRN 23)    
1 28361U 04023A   19054.22143670  .00000028  00000-0  00000+0 0  9992
2 28361  54.0523 194.9047 0130136 229.1525 199.6936  2.00567533107490
GPS BIIR-13 (PRN 02)    
1 28474U 04045A   19054.82363681 -.00000045  00000-0  00000-0 0  9994
2 28474  54.6394  72.4023 0190993 258.6966 249.0611  2.00565451104870
GPS BIIRM-1 (PRN 17)    
1 28874U 05038A   19054.81105869 -.00000078  00000-0  00000-0 0  9998
2 28874  56.3772  18.9354 0132004 261.5021 344.2394  2.00561080 98275
GPS BIIRM-2 (PRN 31)    
1 29486U 06042A   19054.54606590  .00000022  00000-0  00000+0 0  9998
2 29486  55.0513 257.5927 0092663 357.8178 334.1527  2.00575801 90970
GPS BIIRM-3 (PRN 12)    
1 29601U 06052A   19054.52766865 -.00000068  00000-0  00000-0 0  9990
2 29601  56.3719 319.7370 0072834  58.5162 302.2371  2.00561509 89847
GPS BIIRM-4 (PRN 15)    
1 32260U 07047A   19054.34125973  .00000024  00000-0  00000+0 0  9999
2 32260  53.1754 190.6932 0110762  42.9567 317.8633  2.00566527 83263
GPS BIIRM-5 (PRN 29)    
1 32384U 07062A   19054.23790345 -.00000077  00000-0  00000+0 0  9991
2 32384  56.4583  19.5878 0004913  79.4707 343.8638  2.00577253 82008
GPS BIIRM-6 (PRN 07)    
1 32711U 08012A   19054.74727016  .00000023  00000-0  00000-0 0  9993
2 32711  54.7891 256.8013 0123773 218.8993 140.2193  2.00571009 80213
GPS BIIRM-8 (PRN 05)    
1 35752U 09043A   19054.21847174 -.00000015  00000-0  00000+0 0  9997
2 35752  54.3890 134.5232 0054020  39.0088 324.9635  2.00567988 69778
GPS BIIF-1  (PRN 25)    
1 36585U 10022A   19054.51427478 -.00000065  00000-0  00000+0 0  9990
2 36585  55.6543 316.1188 0080662  48.2835 274.6645  2.00554747 64027
GPS BIIF-2  (PRN 01)    
1 37753U 11036A   19053.70530481 -.00000034  00000-0  00000+0 0  9999
2 37753  55.8354  76.2745 0082683  37.8345 145.5026  2.00565499 55682
GPS BIIF-3  (PRN 24)    
1 38833U 12053A   19054.43293868  .00000024  00000-0  00000-0 0  9994
2 38833  53.8231 253.1257 0080739  32.8220 327.6875  2.00556872 45987
GPS BIIF-4  (PRN 27)    
1 39166U 13023A   19054.79445189 -.00000081  00000-0  00000-0 0  9990
2 39166  56.0640  15.7498 0066441  23.0467 337.2399  2.00568366 42328
GPS BIIF-5  (PRN 30)    
1 39533U 14008A   19054.29210543  .00000017  00000-0  00000-0 0  9999
2 39533  53.9580 258.5138 0037174 190.2469 169.6962  2.00569130 36138
GPS BIIF-6  (PRN 06)    
1 39741U 14026A   19054.57922087 -.00000040  00000-0  00000-0 0  9991
2 39741  55.8171  75.7651 0016984 290.7018  69.1629  2.00549111 34978
GPS BIIF-7  (PRN 09)    
1 40105U 14045A   19054.16596707  .00000029  00000-0  00000+0 0  9994
2 40105  54.5787 195.1484 0012158 100.2835 259.8130  2.00556656 33397
GPS BIIF-8  (PRN 03)    
1 40294U 14068A   19055.03147586 -.00000022  00000-0  00000+0 0  9996
2 40294  55.1411 135.9552 0017779  29.4784 330.6684  2.00574994 31636
GPS BIIF-9  (PRN 26)    
1 40534U 15013A   19054.18035914 -.00000062  00000-0  00000+0 0  9994
2 40534  54.5860 314.5933 0036381   2.7513 357.3179  2.00576953 28689
GPS BIIF-10  (PRN 08)   
1 40730U 15033A   19053.83365420 -.00000081  00000-0  00000+0 0  9994
2 40730  55.5904  15.1796 0043755 337.9211  21.8808  2.00560779 26431
GPS BIIF-11  (PRN 10)   
1 41019U 15062A   19054.38402964 -.00000014  00000-0  00000+0 0  9999
2 41019  55.1433 135.7928 0044453 205.4795 154.3485  2.00564582 24261
GPS BIIF-12  (PRN 32)   
1 41328U 16007A   19054.47880860  .00000031  00000-0  00000+0 0  9995
2 41328  54.8244 195.4946 0027451 214.6319 145.1501  2.00553411 22327
